[Satellite]
VERSION=1.1
NAME=IRIDIUM 143
NICKNAME=IRIDIUM 143
TLE1=1 43258U 18030K   22342.59764112  .00000296  00000+0  98469-4 0  9998
TLE2=2 43258  86.3966 108.2393 0002216 100.3330 259.8116 14.34217575245685
STATUS=0
